TIBA-1                  
1 44800U 19080A   26094.18864199  .00000155  00000+0  00000+0 0  9990
2 44800   0.0655  15.1436 0001979 359.3737 281.3867  1.00270525 23313
INMARSAT GX5            
1 44801U 19080B   26094.17845316  .00000000  00000+0  00000+0 0  9999
2 44801   0.0251  34.1718 0002018 356.4137 237.1556  1.00271621  6040
JCSAT-18 (KACIFIC 1)    
1 44868U 19091A   26094.23586623 -.00000201  00000+0  00000+0 0  9998
2 44868   0.0423 358.1860 0000332  75.4905 353.7874  1.00272063 23261
ELEKTRO-L 3             
1 44903U 19095A   26094.11995293 -.00000097  00000+0  00000+0 0  9999
2 44903   0.0738  60.6930 0001393 302.7570 308.1061  1.00272242 22962
SHIJIAN-20 (SJ-20)      
1 44910U 19097A   26094.78495895  .00000110  00000+0  00000+0 0  9990
2 44910   4.7304  75.9451 0002999  16.0876  78.4415  1.00087812 22961
TJS-5                   
1 44978U 20002A   26094.83930993 -.00000342  00000+0  00000+0 0  9999
2 44978   0.1984 269.7875 0005511 124.4959 208.5315  1.00270451 22969
GSAT-30                 
1 45026U 20005A   26094.22614111 -.00000165  00000+0  00000+0 0  9994
2 45026   0.0706  82.7333 0002056 347.2398 286.9672  1.00272630 22765
EUTELSAT KONNECT        
1 45027U 20005B   26094.17767315  .00000049  00000+0  00000+0 0  9994
2 45027   0.0675  94.9494 0001312 219.5268 309.1953  1.00272684 23596
JCSAT-17                
1 45245U 20013A   26094.18002789 -.00000320  00000+0  00000+0 0  9996
2 45245   5.3944 356.1435 0004446  14.5304  22.6146  1.00272663 22494
GEO-KOMPSAT-2B          
1 45246U 20013B   26094.25600255 -.00000344  00000+0  00000+0 0  9993
2 45246   0.0452 341.3619 0001273 354.6971  76.9252  1.00273551 22536
BEIDOU-3 G2             
1 45344U 20017A   26094.12081959 -.00000140  00000+0  00000+0 0  9990
2 45344   2.7162  46.1345 0002817 334.6591 295.1846  1.00272125 22517
BEIDOU-3 G3             
1 45807U 20040A   26094.05555934 -.00000353  00000+0  00000+0 0  9997
2 45807   2.2659  67.2230 0004504 326.6647 289.0502  1.00270244 21321
APSTAR-6D               
1 45863U 20045A   26093.48976877 -.00000321  00000+0  00000+0 0  9998
2 45863   0.0470 103.0436 0002660 345.0952  53.9599  1.00266278 21115
KOREASAT 116            
1 45920U 20048A   26094.26155749  .00000000  00000+0  00000+0 0  9992
2 45920   0.0137 203.9240 0001160 200.5929 358.4406  1.00268914 20898
EXPRESS 103             
1 45985U 20053A   26092.04330780 -.00000288  00000+0  00000+0 0  9992
2 45985   0.0224 258.5231 0000849  21.4282  22.5300  1.00272930 20881
EXPRESS 80              
1 45986U 20053B   26092.24832429 -.00000142  00000+0  00000+0 0  9991
2 45986   0.0333 259.2572 0002323 272.2472 188.4861  1.00272408 20878
BSAT-4B                 
1 46112U 20056A   26093.98405905 -.00000351  00000+0  00000+0 0  9995
2 46112   0.0728 111.5527 0002569 334.8673 209.9822  1.00271774 20644
