[{"OBJECT_NAME":"TIBA-1","OBJECT_ID":"2019-080A","EPOCH":"2026-04-04T04:31:38.667936","MEAN_MOTION":1.00270525,"ECCENTRICITY":0.00019792,"INCLINATION":0.0655,"RA_OF_ASC_NODE":15.1436,"ARG_OF_PERICENTER":359.3737,"MEAN_ANOMALY":281.3867,"EPHEMERIS_TYPE":0,"CLASSIFICATION_TYPE":"U","NORAD_CAT_ID":44800,"ELEMENT_SET_NO":999,"REV_AT_EPOCH":2331,"BSTAR":0,"MEAN_MOTION_DOT":1.55e-6,"MEAN_MOTION_DDOT":0},{"OBJECT_NAME":"INMARSAT GX5","OBJECT_ID":"2019-080B","EPOCH":"2026-04-04T04:16:58.353024","MEAN_MOTION":1.00271621,"ECCENTRICITY":0.00020185,"INCLINATION":0.0251,"RA_OF_ASC_NODE":34.1718,"ARG_OF_PERICENTER":356.4137,"MEAN_ANOMALY":237.1556,"EPHEMERIS_TYPE":0,"CLASSIFICATION_TYPE":"U","NORAD_CAT_ID":44801,"ELEMENT_SET_NO":999,"REV_AT_EPOCH":604,"BSTAR":0,"MEAN_MOTION_DOT":0,"MEAN_MOTION_DDOT":0},{"OBJECT_NAME":"JCSAT-18 (KACIFIC 1)","OBJECT_ID":"2019-091A","EPOCH":"2026-04-04T05:39:38.842272","MEAN_MOTION":1.00272063,"ECCENTRICITY":3.32e-5,"INCLINATION":0.0423,"RA_OF_ASC_NODE":358.186,"ARG_OF_PERICENTER":75.4905,"MEAN_ANOMALY":353.7874,"EPHEMERIS_TYPE":0,"CLASSIFICATION_TYPE":"U","NORAD_CAT_ID":44868,"ELEMENT_SET_NO":999,"REV_AT_EPOCH":2326,"BSTAR":0,"MEAN_MOTION_DOT":-2.01e-6,"MEAN_MOTION_DDOT":0},{"OBJECT_NAME":"ELEKTRO-L 3","OBJECT_ID":"2019-095A","EPOCH":"2026-04-04T02:52:43.933152","MEAN_MOTION":1.00272242,"ECCENTRICITY":0.00013936,"INCLINATION":0.0738,"RA_OF_ASC_NODE":60.693,"ARG_OF_PERICENTER":302.757,"MEAN_ANOMALY":308.1061,"EPHEMERIS_TYPE":0,"CLASSIFICATION_TYPE":"U","NORAD_CAT_ID":44903,"ELEMENT_SET_NO":999,"REV_AT_EPOCH":2296,"BSTAR":0,"MEAN_MOTION_DOT":-9.7e-7,"MEAN_MOTION_DDOT":0},{"OBJECT_NAME":"SHIJIAN-20 (SJ-20)","OBJECT_ID":"2019-097A","EPOCH":"2026-04-04T18:50:20.453280","MEAN_MOTION":1.00087812,"ECCENTRICITY":0.0002999,"INCLINATION":4.7304,"RA_OF_ASC_NODE":75.9451,"ARG_OF_PERICENTER":16.0876,"MEAN_ANOMALY":78.4415,"EPHEMERIS_TYPE":0,"CLASSIFICATION_TYPE":"U","NORAD_CAT_ID":44910,"ELEMENT_SET_NO":999,"REV_AT_EPOCH":2296,"BSTAR":0,"MEAN_MOTION_DOT":1.1e-6,"MEAN_MOTION_DDOT":0},{"OBJECT_NAME":"TJS-5","OBJECT_ID":"2020-002A","EPOCH":"2026-04-04T20:08:36.377952","MEAN_MOTION":1.00270451,"ECCENTRICITY":0.0005511,"INCLINATION":0.1984,"RA_OF_ASC_NODE":269.7875,"ARG_OF_PERICENTER":124.4959,"MEAN_ANOMALY":208.5315,"EPHEMERIS_TYPE":0,"CLASSIFICATION_TYPE":"U","NORAD_CAT_ID":44978,"ELEMENT_SET_NO":999,"REV_AT_EPOCH":2296,"BSTAR":0,"MEAN_MOTION_DOT":-3.42e-6,"MEAN_MOTION_DDOT":0},{"OBJECT_NAME":"GSAT-30","OBJECT_ID":"2020-005A","EPOCH":"2026-04-04T05:25:38.591904","MEAN_MOTION":1.0027263,"ECCENTRICITY":0.00020563,"INCLINATION":0.0706,"RA_OF_ASC_NODE":82.7333,"ARG_OF_PERICENTER":347.2398,"MEAN_ANOMALY":286.9672,"EPHEMERIS_TYPE":0,"CLASSIFICATION_TYPE":"U","NORAD_CAT_ID":45026,"ELEMENT_SET_NO":999,"REV_AT_EPOCH":2276,"BSTAR":0,"MEAN_MOTION_DOT":-1.65e-6,"MEAN_MOTION_DDOT":0},{"OBJECT_NAME":"EUTELSAT KONNECT","OBJECT_ID":"2020-005B","EPOCH":"2026-04-04T04:15:50.960160","MEAN_MOTION":1.00272684,"ECCENTRICITY":0.0001312,"INCLINATION":0.0675,"RA_OF_ASC_NODE":94.9494,"ARG_OF_PERICENTER":219.5268,"MEAN_ANOMALY":309.1953,"EPHEMERIS_TYPE":0,"CLASSIFICATION_TYPE":"U","NORAD_CAT_ID":45027,"ELEMENT_SET_NO":999,"REV_AT_EPOCH":2359,"BSTAR":0,"MEAN_MOTION_DOT":4.9e-7,"MEAN_MOTION_DDOT":0},{"OBJECT_NAME":"JCSAT-17","OBJECT_ID":"2020-013A","EPOCH":"2026-04-04T04:19:14.409696","MEAN_MOTION":1.00272663,"ECCENTRICITY":0.00044465,"INCLINATION":5.3944,"RA_OF_ASC_NODE":356.1435,"ARG_OF_PERICENTER":14.5304,"MEAN_ANOMALY":22.6146,"EPHEMERIS_TYPE":0,"CLASSIFICATION_TYPE":"U","NORAD_CAT_ID":45245,"ELEMENT_SET_NO":999,"REV_AT_EPOCH":2249,"BSTAR":0,"MEAN_MOTION_DOT":-3.2e-6,"MEAN_MOTION_DDOT":0},{"OBJECT_NAME":"GEO-KOMPSAT-2B","OBJECT_ID":"2020-013B","EPOCH":"2026-04-04T06:08:38.620320","MEAN_MOTION":1.00273551,"ECCENTRICITY":0.00012736,"INCLINATION":0.0452,"RA_OF_ASC_NODE":341.3619,"ARG_OF_PERICENTER":354.6971,"MEAN_ANOMALY":76.9252,"EPHEMERIS_TYPE":0,"CLASSIFICATION_TYPE":"U","NORAD_CAT_ID":45246,"ELEMENT_SET_NO":999,"REV_AT_EPOCH":2253,"BSTAR":0,"MEAN_MOTION_DOT":-3.44e-6,"MEAN_MOTION_DDOT":0},{"OBJECT_NAME":"BEIDOU-3 G2","OBJECT_ID":"2020-017A","EPOCH":"2026-04-04T02:53:58.812576","MEAN_MOTION":1.00272125,"ECCENTRICITY":0.00028175,"INCLINATION":2.7162,"RA_OF_ASC_NODE":46.1345,"ARG_OF_PERICENTER":334.6591,"MEAN_ANOMALY":295.1846,"EPHEMERIS_TYPE":0,"CLASSIFICATION_TYPE":"U","NORAD_CAT_ID":45344,"ELEMENT_SET_NO":999,"REV_AT_EPOCH":2251,"BSTAR":0,"MEAN_MOTION_DOT":-1.4e-6,"MEAN_MOTION_DDOT":0},{"OBJECT_NAME":"BEIDOU-3 G3","OBJECT_ID":"2020-040A","EPOCH":"2026-04-04T01:20:00.326976","MEAN_MOTION":1.00270244,"ECCENTRICITY":0.00045043,"INCLINATION":2.2659,"RA_OF_ASC_NODE":67.223,"ARG_OF_PERICENTER":326.6647,"MEAN_ANOMALY":289.0502,"EPHEMERIS_TYPE":0,"CLASSIFICATION_TYPE":"U","NORAD_CAT_ID":45807,"ELEMENT_SET_NO":999,"REV_AT_EPOCH":2132,"BSTAR":0,"MEAN_MOTION_DOT":-3.53e-6,"MEAN_MOTION_DDOT":0},{"OBJECT_NAME":"APSTAR-6D","OBJECT_ID":"2020-045A","EPOCH":"2026-04-03T11:45:16.021728","MEAN_MOTION":1.00266278,"ECCENTRICITY":0.00026609,"INCLINATION":0.047,"RA_OF_ASC_NODE":103.0436,"ARG_OF_PERICENTER":345.0952,"MEAN_ANOMALY":53.9599,"EPHEMERIS_TYPE":0,"CLASSIFICATION_TYPE":"U","NORAD_CAT_ID":45863,"ELEMENT_SET_NO":999,"REV_AT_EPOCH":2111,"BSTAR":0,"MEAN_MOTION_DOT":-3.21e-6,"MEAN_MOTION_DDOT":0},{"OBJECT_NAME":"KOREASAT 116","OBJECT_ID":"2020-048A","EPOCH":"2026-04-04T06:16:38.567136","MEAN_MOTION":1.00268914,"ECCENTRICITY":0.00011609,"INCLINATION":0.0137,"RA_OF_ASC_NODE":203.924,"ARG_OF_PERICENTER":200.5929,"MEAN_ANOMALY":358.4406,"EPHEMERIS_TYPE":0,"CLASSIFICATION_TYPE":"U","NORAD_CAT_ID":45920,"ELEMENT_SET_NO":999,"REV_AT_EPOCH":2089,"BSTAR":0,"MEAN_MOTION_DOT":0,"MEAN_MOTION_DDOT":0},{"OBJECT_NAME":"EXPRESS 103","OBJECT_ID":"2020-053A","EPOCH":"2026-04-02T01:02:21.793920","MEAN_MOTION":1.0027293,"ECCENTRICITY":8.494e-5,"INCLINATION":0.0224,"RA_OF_ASC_NODE":258.5231,"ARG_OF_PERICENTER":21.4282,"MEAN_ANOMALY":22.53,"EPHEMERIS_TYPE":0,"CLASSIFICATION_TYPE":"U","NORAD_CAT_ID":45985,"ELEMENT_SET_NO":999,"REV_AT_EPOCH":2088,"BSTAR":0,"MEAN_MOTION_DOT":-2.88e-6,"MEAN_MOTION_DDOT":0},{"OBJECT_NAME":"EXPRESS 80","OBJECT_ID":"2020-053B","EPOCH":"2026-04-02T05:57:35.218656","MEAN_MOTION":1.00272408,"ECCENTRICITY":0.00023234,"INCLINATION":0.0333,"RA_OF_ASC_NODE":259.2572,"ARG_OF_PERICENTER":272.2472,"MEAN_ANOMALY":188.4861,"EPHEMERIS_TYPE":0,"CLASSIFICATION_TYPE":"U","NORAD_CAT_ID":45986,"ELEMENT_SET_NO":999,"REV_AT_EPOCH":2087,"BSTAR":0,"MEAN_MOTION_DOT":-1.42e-6,"MEAN_MOTION_DDOT":0},{"OBJECT_NAME":"BSAT-4B","OBJECT_ID":"2020-056A","EPOCH":"2026-04-03T23:37:02.701920","MEAN_MOTION":1.00271774,"ECCENTRICITY":0.00025694,"INCLINATION":0.0728,"RA_OF_ASC_NODE":111.5527,"ARG_OF_PERICENTER":334.8673,"MEAN_ANOMALY":209.9822,"EPHEMERIS_TYPE":0,"CLASSIFICATION_TYPE":"U","NORAD_CAT_ID":46112,"ELEMENT_SET_NO":999,"REV_AT_EPOCH":2064,"BSTAR":0,"MEAN_MOTION_DOT":-3.51e-6,"MEAN_MOTION_DDOT":0}]
